{
  "type": "FeatureCollection",
  "features": [
    {
      "type": "Feature",
      "properties": {
        "norad_id": 28899,
        "name": "INMARSAT 4-F2 (SOUTHPAN/PRN 122)",
        "group": "gnss",
        "lat": -0.07882654325068056,
        "lon": 42.56572853848188,
        "alt_km": 35794.218975748576,
        "timestamp": "2025-12-15T11:38:37.395438+00:00",
        "meta_object_name": "INMARSAT 4-F2 (SOUTHPAN/PRN 122)",
        "meta_object_id": "2005-044A",
        "meta_epoch": "2025-12-14T22:39:45.580320",
        "meta_mean_motion": 1.00271557,
        "meta_eccentricity": 0.00026623,
        "meta_inclination": 4.8554,
        "meta_ra_of_asc_node": 43.6975,
        "meta_arg_of_pericenter": 223.7202,
        "meta_mean_anomaly": 299.8824,
        "meta_ephemeris_type": 0,
        "meta_classification_type": "U",
        "meta_norad_cat_id": 28899,
        "meta_element_set_no": 999,
        "meta_rev_at_epoch": 7367,
        "meta_bstar": 0,
        "meta_mean_motion_dot": -2.44e-06,
        "meta_mean_motion_ddot": 0,
        "tle_line1": "1 28899U 05044A   25348.94427755 -.00000244  00000+0  00000+0 0  9993",
        "tle_line2": "2 28899   4.8554  43.6975 0002662 223.7202 299.8824  1.00271557 73675"
      },
      "geometry": {
        "type": "Point",
        "coordinates": [
          42.56572853848188,
          -0.07882654325068056
        ]
      }
    },
    {
      "type": "Feature",
      "properties": {
        "norad_id": 29486,
        "name": "GPS BIIRM-2 (PRN 31)",
        "group": "gnss",
        "lat": -19.909516545716023,
        "lon": 143.74658420097174,
        "alt_km": 20117.311531785977,
        "timestamp": "2025-12-15T11:38:37.395451+00:00",
        "meta_object_name": "GPS BIIRM-2 (PRN 31)",
        "meta_object_id": "2006-042A",
        "meta_epoch": "2025-12-14T18:28:39.630432",
        "meta_mean_motion": 2.00554112,
        "meta_eccentricity": 0.01073383,
        "meta_inclination": 54.6944,
        "meta_ra_of_asc_node": 158.6601,
        "meta_arg_of_pericenter": 52.0063,
        "meta_mean_anomaly": 128.102,
        "meta_ephemeris_type": 0,
        "meta_classification_type": "U",
        "meta_norad_cat_id": 29486,
        "meta_element_set_no": 999,
        "meta_rev_at_epoch": 14069,
        "meta_bstar": 0,
        "meta_mean_motion_dot": 1e-06,
        "meta_mean_motion_ddot": 0,
        "tle_line1": "1 29486U 06042A   25348.76990313  .00000100  00000+0  00000+0 0  9990",
        "tle_line2": "2 29486  54.6944 158.6601 0107338  52.0063 128.1020  2.00554112140692"
      },
      "geometry": {
        "type": "Point",
        "coordinates": [
          143.74658420097174,
          -19.909516545716023
        ]
      }
    },
    {
      "type": "Feature",
      "properties": {
        "norad_id": 29601,
        "name": "GPS BIIRM-3 (PRN 12)",
        "group": "gnss",
        "lat": 26.86569304546376,
        "lon": -117.90521958143152,
        "alt_km": 20039.65819276622,
        "timestamp": "2025-12-15T11:38:37.395464+00:00",
        "meta_object_name": "GPS BIIRM-3 (PRN 12)",
        "meta_object_id": "2006-052A",
        "meta_epoch": "2025-12-11T22:46:47.068032",
        "meta_mean_motion": 2.00573524,
        "meta_eccentricity": 0.00877389,
        "meta_inclination": 54.9707,
        "meta_ra_of_asc_node": 221.4296,
        "meta_arg_of_pericenter": 87.4221,
        "meta_mean_anomaly": 273.6564,
        "meta_ephemeris_type": 0,
        "meta_classification_type": "U",
        "meta_norad_cat_id": 29601,
        "meta_element_set_no": 999,
        "meta_rev_at_epoch": 13965,
        "meta_bstar": 0,
        "meta_mean_motion_dot": 9e-08,
        "meta_mean_motion_ddot": 0,
        "tle_line1": "1 29601U 06052A   25345.94915588  .00000009  00000+0  00000+0 0  9996",
        "tle_line2": "2 29601  54.9707 221.4296 0087738  87.4221 273.6564  2.00573524139650"
      },
      "geometry": {
        "type": "Point",
        "coordinates": [
          -117.90521958143152,
          26.86569304546376
        ]
      }
    },
    {
      "type": "Feature",
      "properties": {
        "norad_id": 32260,
        "name": "GPS BIIRM-4 (PRN 15)",
        "group": "gnss",
        "lat": 3.06341884089858,
        "lon": -94.58921436949092,
        "alt_km": 20181.844624986323,
        "timestamp": "2025-12-15T11:38:37.395476+00:00",
        "meta_object_name": "GPS BIIRM-4 (PRN 15)",
        "meta_object_id": "2007-047A",
        "meta_epoch": "2025-12-13T18:00:56.680128",
        "meta_mean_motion": 2.00564495,
        "meta_eccentricity": 0.0164139,
        "meta_inclination": 53.9559,
        "meta_ra_of_asc_node": 87.7167,
        "meta_arg_of_pericenter": 85.2596,
        "meta_mean_anomaly": 276.6041,
        "meta_ephemeris_type": 0,
        "meta_classification_type": "U",
        "meta_norad_cat_id": 32260,
        "meta_element_set_no": 999,
        "meta_rev_at_epoch": 13309,
        "meta_bstar": 0,
        "meta_mean_motion_dot": -4.4e-07,
        "meta_mean_motion_ddot": 0,
        "tle_line1": "1 32260U 07047A   25347.75065602 -.00000044  00000+0  00000+0 0  9990",
        "tle_line2": "2 32260  53.9559  87.7167 0164139  85.2596 276.6041  2.00564495133093"
      },
      "geometry": {
        "type": "Point",
        "coordinates": [
          -94.58921436949092,
          3.06341884089858
        ]
      }
    },
    {
      "type": "Feature",
      "properties": {
        "norad_id": 32275,
        "name": "COSMOS 2433 (720)",
        "group": "gnss",
        "lat": 34.072444634711964,
        "lon": -20.09093566809959,
        "alt_km": 19137.27921640633,
        "timestamp": "2025-12-15T11:38:37.395488+00:00",
        "meta_object_name": "COSMOS 2433 (720)",
        "meta_object_id": "2007-052A",
        "meta_epoch": "2025-12-14T11:55:54.844320",
        "meta_mean_motion": 2.13103937,
        "meta_eccentricity": 0.00054818,
        "meta_inclination": 65.6821,
        "meta_ra_of_asc_node": 322.1464,
        "meta_arg_of_pericenter": 253.0892,
        "meta_mean_anomaly": 106.8496,
        "meta_ephemeris_type": 0,
        "meta_classification_type": "U",
        "meta_norad_cat_id": 32275,
        "meta_element_set_no": 999,
        "meta_rev_at_epoch": 14112,
        "meta_bstar": 0,
        "meta_mean_motion_dot": -6.4e-07,
        "meta_mean_motion_ddot": 0,
        "tle_line1": "1 32275U 07052A   25348.49716255 -.00000064  00000+0  00000+0 0  9993",
        "tle_line2": "2 32275  65.6821 322.1464 0005481 253.0892 106.8496  2.13103937141120"
      },
      "geometry": {
        "type": "Point",
        "coordinates": [
          -20.09093566809959,
          34.072444634711964
        ]
      }
    },
    {
      "type": "Feature",
      "properties": {
        "norad_id": 32276,
        "name": "COSMOS 2432 (719)",
        "group": "gnss",
        "lat": -15.976920940287531,
        "lon": -45.20614880143527,
        "alt_km": 19107.50826120312,
        "timestamp": "2025-12-15T11:38:37.395500+00:00",
        "meta_object_name": "COSMOS 2432 (719)",
        "meta_object_id": "2007-052B",
        "meta_epoch": "2025-12-14T13:36:30.109824",
        "meta_mean_motion": 2.13103074,
        "meta_eccentricity": 0.00112617,
        "meta_inclination": 65.6978,
        "meta_ra_of_asc_node": 322.2682,
        "meta_arg_of_pericenter": 312.3582,
        "meta_mean_anomaly": 45.6283,
        "meta_ephemeris_type": 0,
        "meta_classification_type": "U",
        "meta_norad_cat_id": 32276,
        "meta_element_set_no": 999,
        "meta_rev_at_epoch": 14114,
        "meta_bstar": 0,
        "meta_mean_motion_dot": -6.4e-07,
        "meta_mean_motion_ddot": 0,
        "tle_line1": "1 32276U 07052B   25348.56701516 -.00000064  00000+0  00000+0 0  9996",
        "tle_line2": "2 32276  65.6978 322.2682 0011261 312.3582  45.6283  2.13103074141143"
      },
      "geometry": {
        "type": "Point",
        "coordinates": [
          -45.20614880143527,
          -15.976920940287531
        ]
      }
    },
    {
      "type": "Feature",
      "properties": {
        "norad_id": 32384,
        "name": "GPS BIIRM-5 (PRN 29)",
        "group": "gnss",
        "lat": -43.000638234966466,
        "lon": -118.88797343253992,
        "alt_km": 20252.96142170273,
        "timestamp": "2025-12-15T11:38:37.395525+00:00",
        "meta_object_name": "GPS BIIRM-5 (PRN 29)",
        "meta_object_id": "2007-062A",
        "meta_epoch": "2025-12-14T07:22:44.014368",
        "meta_mean_motion": 2.00577433,
        "meta_eccentricity": 0.00322391,
        "meta_inclination": 55.1808,
        "meta_ra_of_asc_node": 281.583,
        "meta_arg_of_pericenter": 162.4014,
        "meta_mean_anomaly": 10.7862,
        "meta_ephemeris_type": 0,
        "meta_classification_type": "U",
        "meta_norad_cat_id": 32384,
        "meta_element_set_no": 999,
        "meta_rev_at_epoch": 13180,
        "meta_bstar": 0,
        "meta_mean_motion_dot": -7.8e-07,
        "meta_mean_motion_ddot": 0,
        "tle_line1": "1 32384U 07062A   25348.30745387 -.00000078  00000+0  00000+0 0  9998",
        "tle_line2": "2 32384  55.1808 281.5830 0032239 162.4014  10.7862  2.00577433131801"
      },
      "geometry": {
        "type": "Point",
        "coordinates": [
          -118.88797343253992,
          -43.000638234966466
        ]
      }
    }
  ]
}